{"type": "FeatureCollection", "features": [ {"type": "Feature", "properties": {"norad_id": 35824, "name": "COSMOS 2251 DEB", "group": "cosmos-2251-debris", "lat": 15.557911632563759, "lon": 69.66027886112856, "alt_km": 1065.3192808430786, "timestamp": "2025-12-03T06:58:43.638755+00:00", "meta": {"OBJECT_NAME": "COSMOS 2251 DEB", "OBJECT_ID": "1993-036ASW", "EPOCH": "2025-12-01T23:46:09.551712", "MEAN_MOTION": 13.88347009, "ECCENTRICITY": 0.02504054, "INCLINATION": 73.846, "RA_OF_ASC_NODE": 67.2659, "ARG_OF_PERICENTER": 155.2695, "MEAN_ANOMALY": 206.0685, "EPHEMERIS_TYPE": 0, "CLASSIFICATION_TYPE": "U", "NORAD_CAT_ID": 35824, "ELEMENT_SET_NO": 999, "REV_AT_EPOCH": 84078, "BSTAR": 0.0016452195, "MEAN_MOTION_DOT": 2.507e-05, "MEAN_MOTION_DDOT": 0}, "tle": {"line1": "1 35824U 93036ASW 25335.99038833  .00002507  00000+0  16452-2 0  9997", "line2": "2 35824  73.8460  67.2659 0250405 155.2695 206.0685 13.88347009840783"}}, "geometry": {"type": "Point", "coordinates": [69.66027886112856, 15.557911632563759]}}, {"type": "Feature", "properties": {"norad_id": 35825, "name": "COSMOS 2251 DEB", "group": "cosmos-2251-debris", "lat": -73.99638508931845, "lon": 61.336932266342, "alt_km": 748.0793173032853, "timestamp": "2025-12-03T06:58:43.638765+00:00", "meta": {"OBJECT_NAME": "COSMOS 2251 DEB", "OBJECT_ID": "1993-036ASX", "EPOCH": "2025-11-18T20:38:01.180896", "MEAN_MOTION": 13.70825357, "ECCENTRICITY": 0.03535711, "INCLINATION": 74.1138, "RA_OF_ASC_NODE": 181.8907, "ARG_OF_PERICENTER": 283.1782, "MEAN_ANOMALY": 73.0118, "EPHEMERIS_TYPE": 0, "CLASSIFICATION_TYPE": "U", "NORAD_CAT_ID": 35825, "ELEMENT_SET_NO": 999, "REV_AT_EPOCH": 82181, "BSTAR": 0.0013809564, "MEAN_MOTION_DOT": 1.891e-05, "MEAN_MOTION_DDOT": 0}, "tle": {"line1": "1 35825U 93036ASX 25322.85973589  .00001891  00000+0  13810-2 0  9995", "line2": "2 35825  74.1138 181.8907 0353571 283.1782  73.0118 13.70825357821819"}}, "geometry": {"type": "Point", "coordinates": [61.336932266342, -73.99638508931845]}}, {"type": "Feature", "properties": {"norad_id": 35829, "name": "COSMOS 2251 DEB", "group": "cosmos-2251-debris", "lat": 2.8385670685628646, "lon": -63.49699138570445, "alt_km": 639.2070783352046, "timestamp": "2025-12-03T06:58:43.638775+00:00", "meta": {"OBJECT_NAME": "COSMOS 2251 DEB", "OBJECT_ID": "1993-036ATB", "EPOCH": "2025-11-30T16:21:21.662208", "MEAN_MOTION": 14.75731719, "ECCENTRICITY": 0.00079875, "INCLINATION": 74.0228, "RA_OF_ASC_NODE": 122.4242, "ARG_OF_PERICENTER": 184.1441, "MEAN_ANOMALY": 175.9668, "EPHEMERIS_TYPE": 0, "CLASSIFICATION_TYPE": "U", "NORAD_CAT_ID": 35829, "ELEMENT_SET_NO": 999, "REV_AT_EPOCH": 87597, "BSTAR": 0.0025962161, "MEAN_MOTION_DOT": 0.00017791, "MEAN_MOTION_DDOT": 0}, "tle": {"line1": "1 35829U 93036ATB 25334.68150072  .00017791  00000+0  25962-2 0  9994", "line2": "2 35829  74.0228 122.4242 0007987 184.1441 175.9668 14.75731719875976"}}, "geometry": {"type": "Point", "coordinates": [-63.49699138570445, 2.8385670685628646]}}, {"type": "Feature", "properties": {"norad_id": 35830, "name": "COSMOS 2251 DEB", "group": "cosmos-2251-debris", "lat": 73.84492222005811, "lon": 15.38980083766648, "alt_km": 889.6612846447852, "timestamp": "2025-12-03T06:58:43.638785+00:00", "meta": {"OBJECT_NAME": "COSMOS 2251 DEB", "OBJECT_ID": "1993-036ATC", "EPOCH": "2025-12-01T03:57:40.475520", "MEAN_MOTION": 14.2387799, "ECCENTRICITY": 0.01234559, "INCLINATION": 73.8619, "RA_OF_ASC_NODE": 287.4996, "ARG_OF_PERICENTER": 257.8622, "MEAN_ANOMALY": 100.8671, "EPHEMERIS_TYPE": 0, "CLASSIFICATION_TYPE": "U", "NORAD_CAT_ID": 35830, "ELEMENT_SET_NO": 999, "REV_AT_EPOCH": 61099, "BSTAR": 0.00092751736, "MEAN_MOTION_DOT": 2.272e-05, "MEAN_MOTION_DDOT": 0}, "tle": {"line1": "1 35830U 93036ATC 25335.16505180  .00002272  00000+0  92752-3 0  9994", "line2": "2 35830  73.8619 287.4996 0123455 257.8622 100.8671 14.23877990610990"}}, "geometry": {"type": "Point", "coordinates": [15.38980083766648, 73.84492222005811]}}, {"type": "Feature", "properties": {"norad_id": 35834, "name": "COSMOS 2251 DEB", "group": "cosmos-2251-debris", "lat": -54.320055906655455, "lon": -62.30901174492661, "alt_km": 934.6870105092239, "timestamp": "2025-12-03T06:58:43.638795+00:00", "meta": {"OBJECT_NAME": "COSMOS 2251 DEB", "OBJECT_ID": "1993-036ATG", "EPOCH": "2025-12-01T16:59:11.672736", "MEAN_MOTION": 14.12964835, "ECCENTRICITY": 0.01090429, "INCLINATION": 73.9309, "RA_OF_ASC_NODE": 324.1737, "ARG_OF_PERICENTER": 126.9375, "MEAN_ANOMALY": 46.2804, "EPHEMERIS_TYPE": 0, "CLASSIFICATION_TYPE": "U", "NORAD_CAT_ID": 35834, "ELEMENT_SET_NO": 999, "REV_AT_EPOCH": 66107, "BSTAR": 0.00011772733, "MEAN_MOTION_DOT": 2.07e-06, "MEAN_MOTION_DDOT": 0}, "tle": {"line1": "1 35834U 93036ATG 25335.70777399  .00000207  00000+0  11773-3 0  9991", "line2": "2 35834  73.9309 324.1737 0109042 126.9375  46.2804 14.12964835661079"}}, "geometry": {"type": "Point", "coordinates": [-62.30901174492661, -54.320055906655455]}}, {"type": "Feature", "properties": {"norad_id": 35835, "name": "COSMOS 2251 DEB", "group": "cosmos-2251-debris", "lat": -4.903475884458388, "lon": 105.73046290145126, "alt_km": 1047.2427187251305, "timestamp": "2025-12-03T06:58:43.638805+00:00", "meta": {"OBJECT_NAME": "COSMOS 2251 DEB", "OBJECT_ID": "1993-036ATH", "EPOCH": "2025-11-23T15:11:23.439552", "MEAN_MOTION": 13.82767918, "ECCENTRICITY": 0.02888493, "INCLINATION": 74.0623, "RA_OF_ASC_NODE": 300.5555, "ARG_OF_PERICENTER": 86.7647, "MEAN_ANOMALY": 276.6477, "EPHEMERIS_TYPE": 0, "CLASSIFICATION_TYPE": "U", "NORAD_CAT_ID": 35835, "ELEMENT_SET_NO": 999, "REV_AT_EPOCH": 61435, "BSTAR": 0.00097699609, "MEAN_MOTION_DOT": 1.444e-05, "MEAN_MOTION_DDOT": 0}, "tle": {"line1": "1 35835U 93036ATH 25327.63291018  .00001444  00000+0  97700-3 0  9992", "line2": "2 35835  74.0623 300.5555 0288849  86.7647 276.6477 13.82767918614358"}}, "geometry": {"type": "Point", "coordinates": [105.73046290145126, -4.903475884458388]}}, {"type": "Feature", "properties": {"norad_id": 35836, "name": "COSMOS 2251 DEB", "group": "cosmos-2251-debris", "lat": -63.92920486550536, "lon": 155.46315664668396, "alt_km": 652.3550023759672, "timestamp": "2025-12-03T06:58:43.638816+00:00", "meta": {"OBJECT_NAME": "COSMOS 2251 DEB", "OBJECT_ID": "1993-036ATJ", "EPOCH": "2025-12-02T08:26:07.027008", "MEAN_MOTION": 14.70615264, "ECCENTRICITY": 0.00250606, "INCLINATION": 74.032, "RA_OF_ASC_NODE": 193.1051, "ARG_OF_PERICENTER": 253.0154, "MEAN_ANOMALY": 106.8271, "EPHEMERIS_TYPE": 0, "CLASSIFICATION_TYPE": "U", "NORAD_CAT_ID": 35836, "ELEMENT_SET_NO": 999, "REV_AT_EPOCH": 63367, "BSTAR": 0.0018954257, "MEAN_MOTION_DOT": 0.00011572, "MEAN_MOTION_DDOT": 0}, "tle": {"line1": "1 35836U 93036ATJ 25336.35147022  .00011572  00000+0  18954-2 0  9993", "line2": "2 35836  74.0320 193.1051 0025060 253.0154 106.8271 14.70615264633672"}}, "geometry": {"type": "Point", "coordinates": [155.46315664668396, -63.92920486550536]}}, {"type": "Feature", "properties": {"norad_id": 35837, "name": "COSMOS 2251 DEB", "group": "cosmos-2251-debris", "lat": -73.66264379181264, "lon": 128.7368048324456, "alt_km": 1191.3314110080319, "timestamp": "2025-12-03T06:58:43.638826+00:00", "meta": {"OBJECT_NAME": "COSMOS 2251 DEB", "OBJECT_ID": "1993-036ATK", "EPOCH": "2025-12-01T23:51:57.289248", "MEAN_MOTION": 13.6337538, "ECCENTRICITY": 0.04221684, "INCLINATION": 73.722, "RA_OF_ASC_NODE": 225.5014, "ARG_OF_PERICENTER": 147.9905, "MEAN_ANOMALY": 236.1342, "EPHEMERIS_TYPE": 0, "CLASSIFICATION_TYPE": "U", "NORAD_CAT_ID": 35837, "ELEMENT_SET_NO": 999, "REV_AT_EPOCH": 57830, "BSTAR": 0.0015598764, "MEAN_MOTION_DOT": 2.227e-05, "MEAN_MOTION_DDOT": 0}, "tle": {"line1": "1 35837U 93036ATK 25335.99441307  .00002227  00000+0  15599-2 0  9995", "line2": "2 35837  73.7220 225.5014 0422168 147.9905 236.1342 13.63375380578309"}}, "geometry": {"type": "Point", "coordinates": [128.7368048324456, -73.66264379181264]}}, {"type": "Feature", "properties": {"norad_id": 35839, "name": "COSMOS 2251 DEB", "group": "cosmos-2251-debris", "lat": 63.57703148135828, "lon": 129.28647977430626, "alt_km": 425.72844774412897, "timestamp": "2025-12-03T06:58:43.638836+00:00", "meta": {"OBJECT_NAME": "COSMOS 2251 DEB", "OBJECT_ID": "1993-036ATM", "EPOCH": "2025-12-02T18:04:00.304320", "MEAN_MOTION": 15.45026888, "ECCENTRICITY": 0.0004061, "INCLINATION": 74.215, "RA_OF_ASC_NODE": 345.1466, "ARG_OF_PERICENTER": 349.3631, "MEAN_ANOMALY": 10.7494, "EPHEMERIS_TYPE": 0, "CLASSIFICATION_TYPE": "U", "NORAD_CAT_ID": 35839, "ELEMENT_SET_NO": 999, "REV_AT_EPOCH": 88413, "BSTAR": 0.0039662, "MEAN_MOTION_DOT": 0.00191992, "MEAN_MOTION_DDOT": 0}, "tle": {"line1": "1 35839U 93036ATM 25336.75278130  .00191992  00000+0  39662-2 0  9999", "line2": "2 35839  74.2150 345.1466 0004061 349.3631  10.7494 15.45026888884134"}}, "geometry": {"type": "Point", "coordinates": [129.28647977430626, 63.57703148135828]}}, {"type": "Feature", "properties": {"norad_id": 35840, "name": "COSMOS 2251 DEB", "group": "cosmos-2251-debris", "lat": 57.79478659874599, "lon": -157.0750445450203, "alt_km": 681.6617068393944, "timestamp": "2025-12-03T06:58:43.638846+00:00", "meta": {"OBJECT_NAME": "COSMOS 2251 DEB", "OBJECT_ID": "1993-036ATN", "EPOCH": "2025-11-30T06:53:03.692256", "MEAN_MOTION": 14.3763162, "ECCENTRICITY": 0.01161544, "INCLINATION": 73.9309, "RA_OF_ASC_NODE": 181.2553, "ARG_OF_PERICENTER": 86.7922, "MEAN_ANOMALY": 274.6513, "EPHEMERIS_TYPE": 0, "CLASSIFICATION_TYPE": "U", "NORAD_CAT_ID": 35840, "ELEMENT_SET_NO": 999, "REV_AT_EPOCH": 85112, "BSTAR": 0.0016678167, "MEAN_MOTION_DOT": 5.39e-05, "MEAN_MOTION_DDOT": 0}, "tle": {"line1": "1 35840U 93036ATN 25334.28684829  .00005390  00000+0  16678-2 0  9991", "line2": "2 35840  73.9309 181.2553 0116154  86.7922 274.6513 14.37631620851128"}}, "geometry": {"type": "Point", "coordinates": [-157.0750445450203, 57.79478659874599]}}]}